[{"OBJECT_NAME":"GLOBALSTAR M074","OBJECT_ID":"2010-054B","EPOCH":"2026-03-09T22:35:42.651168","MEAN_MOTION":12.62266354,"ECCENTRICITY":2.208e-5,"INCLINATION":52.0023,"RA_OF_ASC_NODE":50.0678,"ARG_OF_PERICENTER":92.5782,"MEAN_ANOMALY":312.394,"EPHEMERIS_TYPE":0,"CLASSIFICATION_TYPE":"U","NORAD_CAT_ID":37189,"ELEMENT_SET_NO":999,"REV_AT_EPOCH":71062,"BSTAR":-3.6952816e-5,"MEAN_MOTION_DOT":-1.1e-6,"MEAN_MOTION_DDOT":0},{"OBJECT_NAME":"COSMOS 1232","OBJECT_ID":"1980-102E","EPOCH":"2026-03-09T22:38:27.356352","MEAN_MOTION":12.56330061,"ECCENTRICITY":0.00336357,"INCLINATION":73.9951,"RA_OF_ASC_NODE":157.0642,"ARG_OF_PERICENTER":244.461,"MEAN_ANOMALY":234.1938,"EPHEMERIS_TYPE":0,"CLASSIFICATION_TYPE":"U","NORAD_CAT_ID":12111,"ELEMENT_SET_NO":999,"REV_AT_EPOCH":7333,"BSTAR":0.00010322654,"MEAN_MOTION_DOT":1.0e-8,"MEAN_MOTION_DDOT":0}]
